STARLINK-3111
1 29418C 21104L   21325.19167213 -.00831212  00000-0 -28184-2 0  3254
2 29418  53.2174  95.6721 0031945  63.6302 163.2181 15.89095351    11
